#dP2024  1  1  0  0  0.00000000     289 ORBIT ITRF  BHN ESOC                    
## 2295  86400.00000000   300.00000000 60310 0.0000000000000                    
+  117   G13G22G21G07G05G20G31G17G15G16G29G12G19G02G25G01G30                    
+        G24G06G09G03G32G26G08G10G04G18G23G14G11G28R09R11R22                    
+        R25R20R19R13R01R03R07R02R17R14R18R21R05R15R12R04R24                    
+        R16E11E12E19E18E14E26E24E30E08E09E02E07E03E04E05E21                    
+        E25E27E31E36E13E15E33E34E10C11C12C14C19C20C27C28C22                    
+        C21C29C30C23C24C26C25C32C33C35C34C36C37C46C45C44C43                    
+        C41C42C06C07C08C09C10C13C16C38C39C40J02J03J04  0  0                    
++         5  5  5  5  5  5  5  5  5  5  5  5  5  5  5  5  5                    
++         4  5  5  5  5  5  5  5  5  5  5  4  5  5  5  6  5                    
++         5  7  6  6  6  5  5  5  5  5  5  5  5  5  5  5  5                    
++         5  5  5  5  5  5  5  5  5  5  5  4  5  4  5  4  5                    
++         4  5  5  5  5  5  5  5  5  5  5  5  5  5  5  5  5                    
++         5  5  5  5  5  5  4  5  5  5  5  5  5  6  5  5  5                    
++         5  5  6  6  7  7  6  7  6  8  7  8  6  5  6  0  0                    
%c M  cc GPS ccc cccc cccc cccc cccc ccccc ccccc ccccc ccccc                    
%c cc cc ccc ccc cccc cccc cccc cccc ccccc ccccc ccccc ccccc                    
%f  0.0000000  0.000000000  0.00000000000  0.000000000000000                    
%f  0.0000000  0.000000000  0.00000000000  0.000000000000000                    
%i    0    0    0    0      0      0      0      0         0                    
%i    0    0    0    0      0      0      0      0         0                    
/* CCCCCCCCCCCCCCCCCCCCCCCCCCCCCCCCCCCCCCCCCCCCCCCCCCCCCCCCCCCCCCCCCCCCCCCCCCCCC
/* CCCCCCCCCCCCCCCCCCCCCCCCCCCCCCCCCCCCCCCCCCCCCCCCCCCCCCCCCCCCCCCCCCCCCCCCCCCCC
/* CCCCCCCCCCCCCCCCCCCCCCCCCCCCCCCCCCCCCCCCCCCCCCCCCCCCCCCCCCCCCCCCCCCCCCCCCCCCC
/* PCV:IGS        OL/AL:EOT11A   NONE     YN ORB:CoN CLK:CoN                    
*  2024  1  1  7 55  0.00000000                                                 
PG13  13043.100591 -15039.009782  17270.117048    611.478139                    
PG22  23671.589825   9964.748733  -5702.800481     55.917518                    
PG21 -15550.965865  19262.564736  -7676.820766    139.808150                    
PG07   9017.592764  12834.870306  21919.461750    -26.331619                    
PG05  12565.701369 -10149.249143  20926.964502   -156.294316                    
PG20  22738.797945  -3093.120307  13278.330441    393.755588                    
PG31 -24142.143961   8201.060774  -8362.685963   -227.023189                    
PG17  12488.336515  14033.799462 -18286.431870    720.880142                    
PG15   3445.981269 -23513.685385  11149.000609    112.734298                    
PG16 -18655.177992   3583.684165  18424.056177   -393.022658                    
PG29  -4623.772329 -25030.848173   7354.961663   -609.229939                    
PG12   1448.661751 -16272.551295 -21238.812282   -463.372436                    
PG19  14749.584781   4604.497103 -21826.761823    420.427699                    
PG02 -12718.205198  19955.596031 -11326.369574   -507.353746                    
PG25 -11330.118562 -18220.887655 -16161.011769    483.664204                    
PG01  -6805.265426  18366.502162 -18126.336648    165.020482                    
PG30  18173.494965   4832.186903  18976.982666   -450.749685                    
PG24  12108.076031 -20640.785216 -11466.640229   -405.197329                    
PG06  22495.655486  -3863.882593 -13592.750745    459.694152                    
PG09   7668.960552  24086.098224   7973.859396     44.754998                    
PG03    -92.177969  15938.819613 -21408.691946     95.548268                    
PG32 -14529.781172  -9951.929443 -19753.032294   -601.506429                    
PG26 -24350.483432  -1271.626048  10816.173411    204.339749                    
PG08  -6111.197706  22838.129949  11582.216234   -159.875483                    
PG10 -24347.945351 -10896.678321  -1677.233180    -67.574692                    
PG04  -1609.098314  26229.880536  -3304.401439    254.619626                    
PG18  -9722.434386 -11461.062069  21922.683274   -521.110228                    
PG23 -18610.067455 -16176.805618  10135.156709    126.802467                    
PG14  22949.935899  13484.114743   1513.328618    286.652117                    
PG11  23719.756998 -11410.053021  -3323.419282   -523.223758                    
PG28 -21359.256425   1714.219093 -15713.235374    -85.848355                    
PR09 -21473.978652   5375.756408  12617.198205    161.896604                    
PR11  11563.876039  10323.781405  20267.045308   -224.810363                    
PR22   1061.221488  14877.746527 -20657.213308    100.998065                    
PR25 -11551.879311  21421.727943  -7660.114481      9.432659                    
PR20 -17414.952789  15145.517930  10831.943468   -106.117383                    
PR19 -10627.373876  -2915.039074  23011.811929   -260.461623                    
PR13  22846.186709  -3893.806212 -10669.149182    -42.884711                    
PR01  14997.440102  10639.934753  17683.045358     73.458166                    
PR03  -2187.945461 -20619.063709  14948.186869     91.954411                    
PR07   2732.227142  20969.811355 -14183.009889     72.580748                    
PR02   8658.750002  -6833.375141  23047.380235    -22.404202                    
PR17  10725.194101 -21814.891626   7682.254141     48.455332                    
PR14   6160.607006 -10542.370349 -22392.542587     25.831456                    
PR18   -414.525848 -15389.965045  20376.739635    119.794351                    
PR21 -10683.445210  21708.005029  -8111.541913    -65.499590                    
PR05 -14523.601235 -12840.255276 -16585.580420    124.676073                    
PR15 -12894.465077 -10255.219717 -19460.731784     83.439251                    
PR12  24718.522529   3967.198805   4860.963817     35.077543                    
PR04 -11371.718247 -22817.417783  -1099.466113    217.685058                    
PR24  16936.908623 -16130.377600 -10139.895434    -38.204362                    
PR16 -24658.282572  -3914.555777  -5146.518480     22.047557                    
PE11 -18160.816285  20494.963025 -11223.694825   3279.195559                    
PE12 -26301.941777  10820.871658   8177.539900   -843.609796                    
PE19 -13989.856864 -18001.747349 -18879.379910   -900.519309                    
PE18  18415.866031  13389.303134 -21996.927343    160.331007                    
PE14 -15667.119875  -3631.781181  18555.269845     -2.040986                    
PE26   -462.129503 -17997.557934  23507.632016    326.414258                    
PE24  -9947.706997  13750.801055  24233.811977   -517.603445                    
PE30  24995.200727    538.471804 -15846.021989   -788.559396                    
PE08  16248.492288  -6071.833623  23980.409212   -201.101077                    
PE09  -8214.008540  24817.083713 -13896.397622   -283.600421                    
PE02  25534.183468  14796.588362   2116.514632     91.388107                    
PE07   8237.395273 -24890.152847  13736.823301    -96.067273                    
PE03  14987.258481  15669.131907  20146.318132    -84.016721                    
PE04 -16273.064948   6798.060231 -23769.660377   -293.355853                    
PE05   5008.252001  28763.934334   4861.174982   4706.058401                    
PE21 -11859.990349 -20137.115714 -18177.063680   -571.681312                    
PE25  11463.860608  20125.595301  18424.154051     -1.144832                    
PE27   9382.064019 -14030.081167 -24318.902610   -238.366042                    
PE31 -24871.849370   -287.070901  16055.929278    -12.846496                    
PE36   -313.861761  18143.010117 -23373.456778   -165.675778                    
PE13  18694.523404 -20359.923452  10611.640768    -19.794558                    
PE15  26274.862581 -10516.003171  -8671.373465    -77.779688                    
PE33 -17915.610395  -5823.193843  22843.639531      5.207645                    
PE34  18356.103149   5325.442916 -22596.315961    -86.530918                    
PE10 -24372.480638  16771.282650  -1015.254534   -590.746227                    
PC11   2508.287886  21528.612705 -17508.164166    335.622931                    
PC12 -11171.294270  25550.014333  -1039.637248    809.192179                    
PC14  13577.634594  23934.918894  -4791.799716   -127.640656                    
PC19 -18636.251931 -20263.901599  -4483.922436   -943.854823                    
PC20  -7608.608213 -24033.508049  11951.396812    -24.016493                    
PC27  15525.803123 -22011.789693  -7332.335268    250.394404                    
PC28  18375.168181  -7308.604862 -19681.717428    189.727378                    
PC22 -19579.443745  -4593.798679 -19342.011060   -164.574547                    
PC21  -9064.625458  13553.770218 -22635.960284   -965.434028                    
PC29 -10521.297583 -14306.788016  21525.232012    222.206527                    
PC30   3682.512384 -26142.057496   9074.991982    -12.487468                    
PC23  27691.652566   -612.024677   3352.347933   -795.778005                    
PC24  -2132.511945  16512.408845  22375.360996    747.592339                    
PC26 -20325.907928  12956.074946  14071.913927   -228.436359                    
PC25  18830.568977  10381.882669  17759.453352    291.436236                    
PC32   9081.968584 -13522.717202  22670.784668   -548.651772                    
PC33  18755.758205  20197.255957   4407.503995   -942.087331                    
PC35 -18144.118482   7925.206217  19642.050631    467.494737                    
PC34  -2522.172424  25757.413675 -10416.284998    337.458051                    
PC36 -17985.850390 -11175.239827 -18171.297848    -70.024015                    
PC37  21000.286915 -12256.454480 -13666.312184   -931.416332                    
PC46    888.881356 -16348.810897 -22608.285647   -112.122752                    
PC45 -27750.013641    836.815880  -2986.811337    -59.692000                    
PC44 -14768.882256  22452.836245   7445.074665    340.318012                    
PC43  10040.833769  15187.240184 -21148.694991     54.599343                    
PC41  19878.655882   5278.854198  18915.907259   -876.614305                    
PC42   6411.444135  23740.937740 -13170.727673   -471.989526                    
PC06 -18499.296951  35221.997004  13546.177332     23.229840                    
PC07  -1478.732368  36950.521018  20511.463685   -566.592177                    
PC08  -7176.300327  19363.143287 -36763.877673    142.848199                    
PC09  -9647.927186  33666.590522  23444.428487   -293.725541                    
PC10   3880.123403  39087.790700  16352.983592    143.207305                    
PC13   -574.429093  21784.243985 -35923.865978    402.517884                    
PC16 -18916.619884  35179.293553  13245.427127   -257.139067                    
PC38 -16346.178409  19454.222869 -33615.875983    127.665623                    
PC39 -21910.553656  35372.212773   6035.406450     -6.436906                    
PC40  -5818.937667  33875.535083  24591.604686    -50.230176                    
PJ02 -27855.897928  20860.405416  28913.598612     -0.885072                    
PJ03 -33287.172457  26054.615421   3906.234656     -0.105318                    
PJ04 -19771.926504  25393.629439 -22170.557145     75.615313                    
EOF                                                                             
